MALLIGYONG-1            
1 58400U 23179A   24249.86684175  .00011422  00000+0  49521-3 0  9998
2 58400  97.3900 135.3584 0000618 128.9728 231.1564 15.22526168 43993
